[
    {
        "Altitude(m)": 704883.4469213507,
        "Argument of Periapsis(deg)": 0.011390121186627068,
        "Eccentricity": 0.0,
        "Inclination(deg)": 45.0,
        "Latitude(deg)": -8.241343503990601,
        "Longitude(deg)": -72.4910847366052,
        "Mean Anomaly(deg)": -168.46678335251912,
        "RAAN(deg)": 199.98924805854182,
        "Satellite Name": "Constellation 1 891",
        "Satellite Number": 891,
        "Semi-Major Axis(m)": 7083131.272910544,
        "Time(s)": 190
    },
    {
        "Altitude(m)": 704892.7872944915,
        "Argument of Periapsis(deg)": 0.011450069192872472,
        "Eccentricity": 0.0,
        "Inclination(deg)": 45.0,
        "Latitude(deg)": -8.28408197079945,
        "Longitude(deg)": -72.45145404297197,
        "Mean Anomaly(deg)": -168.40608221226927,
        "RAAN(deg)": 199.9891914693762,
        "Satellite Name": "Constellation 1 891",
        "Satellite Number": 891,
        "Semi-Major Axis(m)": 7083131.272910544,
        "Time(s)": 191
    },
    {
        "Altitude(m)": 704902.1453772564,
        "Argument of Periapsis(deg)": 0.01151001719911788,
        "Eccentricity": 0.0,
        "Inclination(deg)": 45.0,
        "Latitude(deg)": -8.326815468228263,
        "Longitude(deg)": -72.41181400491844,
        "Mean Anomaly(deg)": -168.3453810720194,
        "RAAN(deg)": 199.98913488021066,
        "Satellite Name": "Constellation 1 891",
        "Satellite Number": 891,
        "Semi-Major Axis(m)": 7083131.272910544,
        "Time(s)": 192
    },
    {
        "Altitude(m)": 704911.5211458518,
        "Argument of Periapsis(deg)": 0.011569965205363285,
        "Eccentricity": 0.0,
        "Inclination(deg)": 45.0,
        "Latitude(deg)": -8.369543969693748,
        "Longitude(deg)": -72.37216474035552,
        "Mean Anomaly(deg)": -168.28467993176946,
        "RAAN(deg)": 199.9890782910451,
        "Satellite Name": "Constellation 1 891",
        "Satellite Number": 891,
        "Semi-Major Axis(m)": 7083131.272910544,
        "Time(s)": 193
    },
    {
        "Altitude(m)": 704920.9145764125,
        "Argument of Periapsis(deg)": 0.01162991321160869,
        "Eccentricity": 0.0,
        "Inclination(deg)": 45.0,
        "Latitude(deg)": -8.412267448594607,
        "Longitude(deg)": -72.33250586288358,
        "Mean Anomaly(deg)": -168.22397879151958,
        "RAAN(deg)": 199.98902170187952,
        "Satellite Name": "Constellation 1 891",
        "Satellite Number": 891,
        "Semi-Major Axis(m)": 7083131.272910544,
        "Time(s)": 194
    },
    {
        "Altitude(m)": 704930.325644979,
        "Argument of Periapsis(deg)": 0.011689861217854095,
        "Eccentricity": 0.0,
        "Inclination(deg)": 45.0,
        "Latitude(deg)": -8.454985878312158,
        "Longitude(deg)": -72.29283749037457,
        "Mean Anomaly(deg)": -168.16327765126968,
        "RAAN(deg)": 199.98896511271397,
        "Satellite Name": "Constellation 1 891",
        "Satellite Number": 891,
        "Semi-Major Axis(m)": 7083131.272910544,
        "Time(s)": 195
    },
    {
        "Altitude(m)": 704939.7543275096,
        "Argument of Periapsis(deg)": 0.0117498092240995,
        "Eccentricity": 0.0,
        "Inclination(deg)": 45.0,
        "Latitude(deg)": -8.49769923220971,
        "Longitude(deg)": -72.25315957258387,
        "Mean Anomaly(deg)": -168.10257651101975,
        "RAAN(deg)": 199.98890852354836,
        "Satellite Name": "Constellation 1 891",
        "Satellite Number": 891,
        "Semi-Major Axis(m)": 7083131.272910544,
        "Time(s)": 196
    },
    {
        "Altitude(m)": 704949.2005998864,
        "Argument of Periapsis(deg)": 0.011809757230344905,
        "Eccentricity": 0.0,
        "Inclination(deg)": 45.0,
        "Latitude(deg)": -8.540407483632496,
        "Longitude(deg)": -72.21347205924715,
        "Mean Anomaly(deg)": -168.04187537076993,
        "RAAN(deg)": 199.9888519343828,
        "Satellite Name": "Constellation 1 891",
        "Satellite Number": 891,
        "Semi-Major Axis(m)": 7083131.272910544,
        "Time(s)": 197
    },
    {
        "Altitude(m)": 704958.6644378983,
        "Argument of Periapsis(deg)": 0.011869705236590313,
        "Eccentricity": 0.0,
        "Inclination(deg)": 45.0,
        "Latitude(deg)": -8.583110605908029,
        "Longitude(deg)": -72.17377490008012,
        "Mean Anomaly(deg)": -167.98117423051994,
        "RAAN(deg)": 199.98879534521726,
        "Satellite Name": "Constellation 1 891",
        "Satellite Number": 891,
        "Semi-Major Axis(m)": 7083131.272910544,
        "Time(s)": 198
    },
    {
        "Altitude(m)": 704968.1458172532,
        "Argument of Periapsis(deg)": 0.011929653242835719,
        "Eccentricity": 0.0,
        "Inclination(deg)": 45.0,
        "Latitude(deg)": -8.625808572345287,
        "Longitude(deg)": -72.13406804477891,
        "Mean Anomaly(deg)": -167.9204730902701,
        "RAAN(deg)": 199.98873875605167,
        "Satellite Name": "Constellation 1 891",
        "Satellite Number": 891,
        "Semi-Major Axis(m)": 7083131.272910544,
        "Time(s)": 199
    }
]